{
  "norad_id": 60283,
  "name": "STARLINK-32037",
  "history": [
    {
      "epoch": "2026-03-28T22:08:01.359744Z",
      "apogee_km": 475.924629260051,
      "perigee_km": 474.5827353644536,
      "latitude_deg": -5.19298071544947e-05,
      "longitude_deg": 164.84966056313613,
      "height_km": 476.019261891562,
      "semi_major_axis_km": 6853.390682312252,
      "eccentricity": 9.79e-05,
      "inclination_deg": 53.1603,
      "raan_deg": 323.1911,
      "arg_perigee_deg": 78.5709,
      "mean_anomaly_deg": 281.5401,
      "mean_motion_rev_day": 15.30187068
    },
    {
      "epoch": "2026-03-28T22:08:01.360608Z",
      "apogee_km": 475.92476632786384,
      "perigee_km": 474.58259829663984,
      "latitude_deg": -5.37381902025577e-05,
      "longitude_deg": 164.84965560597544,
      "height_km": 476.01923473147565,
      "semi_major_axis_km": 6853.390682312252,
      "eccentricity": 9.792e-05,
      "inclination_deg": 53.1603,
      "raan_deg": 323.1911,
      "arg_perigee_deg": 78.5709,
      "mean_anomaly_deg": 281.5401,
      "mean_motion_rev_day": 15.30187068
    },
    {
      "epoch": "2026-03-30T00:46:55.007904Z",
      "apogee_km": 475.91292098900976,
      "perigee_km": 474.5408775363767,
      "latitude_deg": -3.420401359110544e-05,
      "longitude_deg": 118.87553613687102,
      "height_km": 475.860018853182,
      "semi_major_axis_km": 6853.363899262693,
      "eccentricity": 0.0001001,
      "inclination_deg": 53.1604,
      "raan_deg": 318.0349,
      "arg_perigee_deg": 67.2335,
      "mean_anomaly_deg": 292.8771,
      "mean_motion_rev_day": 15.30196038
    },
    {
      "epoch": "2026-03-30T00:46:55.008768Z",
      "apogee_km": 475.91271240196147,
      "perigee_km": 474.541080151761,
      "latitude_deg": -3.165299956997512e-05,
      "longitude_deg": 118.87553442759798,
      "height_km": 475.86009542914553,
      "semi_major_axis_km": 6853.363896276861,
      "eccentricity": 0.00010007,
      "inclination_deg": 53.1604,
      "raan_deg": 318.0349,
      "arg_perigee_deg": 67.2335,
      "mean_anomaly_deg": 292.8771,
      "mean_motion_rev_day": 15.30196039
    },
    {
      "epoch": "2026-03-30T14:53:24.095328Z",
      "apogee_km": 475.96282473352494,
      "perigee_km": 474.54568049030877,
      "latitude_deg": 1.4316189850936661e-05,
      "longitude_deg": -96.05512288575733,
      "height_km": 475.850862777589,
      "semi_major_axis_km": 6853.391252611917,
      "eccentricity": 0.00010339,
      "inclination_deg": 53.1605,
      "raan_deg": 315.3048,
      "arg_perigee_deg": 64.7756,
      "mean_anomaly_deg": 295.3352,
      "mean_motion_rev_day": 15.30186877
    },
    {
      "epoch": "2026-03-30T21:09:36.744192Z",
      "apogee_km": 475.9401760262308,
      "perigee_km": 474.5519547525064,
      "latitude_deg": 5.335395368440613e-05,
      "longitude_deg": 168.42059574807718,
      "height_km": 475.9010492251079,
      "semi_major_axis_km": 6853.383065389368,
      "eccentricity": 0.00010128,
      "inclination_deg": 53.1605,
      "raan_deg": 314.0907,
      "arg_perigee_deg": 69.4569,
      "mean_anomaly_deg": 290.6541,
      "mean_motion_rev_day": 15.30189619
    },
    {
      "epoch": "2026-03-31T08:07:59.306304Z",
      "apogee_km": 476.01908075109895,
      "perigee_km": 474.49365245556146,
      "latitude_deg": 1.5605568841791058e-05,
      "longitude_deg": 1.251017053334263,
      "height_km": 476.0914957434642,
      "semi_major_axis_km": 6853.39336660333,
      "eccentricity": 0.00011129,
      "inclination_deg": 53.1615,
      "raan_deg": 311.9658,
      "arg_perigee_deg": 85.2379,
      "mean_anomaly_deg": 274.8749,
      "mean_motion_rev_day": 15.30186169
    },
    {
      "epoch": "2026-03-31T22:14:28.224384Z",
      "apogee_km": 476.026101223003,
      "perigee_km": 474.4868290507329,
      "latitude_deg": 1.2723432752888066e-05,
      "longitude_deg": 146.3206274122522,
      "height_km": 476.08320451543403,
      "semi_major_axis_km": 6853.393465136867,
      "eccentricity": 0.0001123,
      "inclination_deg": 53.1615,
      "raan_deg": 309.2353,
      "arg_perigee_deg": 84.6547,
      "mean_anomaly_deg": 275.4582,
      "mean_motion_rev_day": 15.30186136
    },
    {
      "epoch": "2026-04-02T13:25:48.042912Z",
      "apogee_km": 475.87209864548186,
      "perigee_km": 474.628894153635,
      "latitude_deg": -5.1249661942584937e-05,
      "longitude_deg": -90.70642413011161,
      "height_km": 476.13713911655344,
      "semi_major_axis_km": 6853.387496399558,
      "eccentricity": 9.07e-05,
      "inclination_deg": 53.1607,
      "raan_deg": 301.6503,
      "arg_perigee_deg": 88.8939,
      "mean_anomaly_deg": 271.2165,
      "mean_motion_rev_day": 15.30188135
    },
    {
      "epoch": "2026-04-02T21:16:03.557856Z",
      "apogee_km": 475.8977613257466,
      "perigee_km": 474.5654664672056,
      "latitude_deg": 6.5451371493678895e-06,
      "longitude_deg": 149.8907929943135,
      "height_km": 476.09276697596704,
      "semi_major_axis_km": 6853.368613896476,
      "eccentricity": 9.72e-05,
      "inclination_deg": 53.1602,
      "raan_deg": 300.134,
      "arg_perigee_deg": 86.7862,
      "mean_anomaly_deg": 273.325,
      "mean_motion_rev_day": 15.30194459
    },
    {
      "epoch": "2026-04-03T20:46:52.627296Z",
      "apogee_km": 475.94048877046043,
      "perigee_km": 474.5985917698754,
      "latitude_deg": 3.998993667585668e-05,
      "longitude_deg": 151.66969143983692,
      "height_km": 476.1129983048849,
      "semi_major_axis_km": 6853.406540270167,
      "eccentricity": 9.79e-05,
      "inclination_deg": 53.1598,
      "raan_deg": 295.583,
      "arg_perigee_deg": 85.2996,
      "mean_anomaly_deg": 274.8117,
      "mean_motion_rev_day": 15.30181757
    },
    {
      "epoch": "2026-04-04T20:17:40.114752Z",
      "apogee_km": 475.8426350514801,
      "perigee_km": 474.6583696910693,
      "latitude_deg": -3.176264155072947e-05,
      "longitude_deg": 153.45482032756655,
      "height_km": 476.5015781123496,
      "semi_major_axis_km": 6853.387502371274,
      "eccentricity": 8.64e-05,
      "inclination_deg": 53.1602,
      "raan_deg": 291.0317,
      "arg_perigee_deg": 126.5007,
      "mean_anomaly_deg": 233.6073,
      "mean_motion_rev_day": 15.30188133
    },
    {
      "epoch": "2026-04-05T05:41:59.212896Z",
      "apogee_km": 475.7680363759955,
      "perigee_km": 474.72358083596373,
      "latitude_deg": -1.205189906907817e-05,
      "longitude_deg": 10.169696687817416,
      "height_km": 476.34859405778695,
      "semi_major_axis_km": 6853.382808605979,
      "eccentricity": 7.62e-05,
      "inclination_deg": 53.1599,
      "raan_deg": 289.2124,
      "arg_perigee_deg": 112.9904,
      "mean_anomaly_deg": 247.1177,
      "mean_motion_rev_day": 15.30189705
    },
    {
      "epoch": "2026-04-05T19:48:27.542592Z",
      "apogee_km": 475.7324301759427,
      "perigee_km": 474.746640495101,
      "latitude_deg": -3.7900681328764674e-05,
      "longitude_deg": 155.24164636936413,
      "height_km": 476.2632054937179,
      "semi_major_axis_km": 6853.376535335522,
      "eccentricity": 7.192e-05,
      "inclination_deg": 53.1597,
      "raan_deg": 286.4818,
      "arg_perigee_deg": 104.6744,
      "mean_anomaly_deg": 255.4336,
      "mean_motion_rev_day": 15.30191806
    },
    {
      "epoch": "2026-04-06T22:27:22.095360Z",
      "apogee_km": 475.768033653002,
      "perigee_km": 474.7126135451672,
      "latitude_deg": 6.105566077364253e-06,
      "longitude_deg": 109.26195885379684,
      "height_km": 476.1268592402253,
      "semi_major_axis_km": 6853.377323599084,
      "eccentricity": 7.7e-05,
      "inclination_deg": 53.1599,
      "raan_deg": 281.3238,
      "arg_perigee_deg": 88.676,
      "mean_anomaly_deg": 271.4329,
      "mean_motion_rev_day": 15.30191542
    }
  ]
}